[{"norad_id":"55833","company":"ONEWEB","tle_line2":"2 55833  87.9011  27.3922 0001469 102.7146 257.4148 13.14504458 95569","launch_date":"2023-03-09","type":"LEO","tle_line1":"1 55833U 23029AP  25041.99251183 -.00000119  00000+0 -35658-3 0  9992","satellite_name":"ONEWEB-0674"},{"norad_id":"55834","company":"ONEWEB","tle_line2":"2 55834  87.9158  42.6420 0002106  81.6038 278.5334 13.19725609 94129","launch_date":"2023-03-09","type":"LEO","tle_line1":"1 55834U 23029AQ  25041.91442244 -.00000020  00000+0 -82276-4 0  9995","satellite_name":"ONEWEB-0675"},{"norad_id":"55835","company":"ONEWEB","tle_line2":"2 55835  87.9159  42.6413 0002152  99.1156 261.0221 13.19724641 94047","launch_date":"2023-03-09","type":"LEO","tle_line1":"1 55835U 23029AR  25041.90653029 -.00000004  00000+0 -42945-4 0  9991","satellite_name":"ONEWEB-0720"},{"norad_id":"56046","company":"ONEWEB","tle_line2":"2 56046  87.9128 326.6118 0001873  70.7573 289.3760 13.16596657 95269","launch_date":"2023-03-26","type":"LEO","tle_line1":"1 56046U 23043A   25042.17823187  .00000009  00000+0 -10259-4 0  9993","satellite_name":"ONEWEB-0537"},{"norad_id":"56047","company":"ONEWEB","tle_line2":"2 56047  87.9128 326.7102 0002070  77.5126 282.6237 13.16596894 94316","launch_date":"2023-03-26","type":"LEO","tle_line1":"1 56047U 23043B   25041.79190683  .00000054  00000+0  10885-3 0  9992","satellite_name":"ONEWEB-0538"},{"norad_id":"56048","company":"ONEWEB","tle_line2":"2 56048  87.9129 326.6656 0001865  54.0517 306.0787 13.16596616 94319","launch_date":"2023-03-26","type":"LEO","tle_line1":"1 56048U 23043C   25041.85524694  .00000115  00000+0  26635-3 0  9991","satellite_name":"ONEWEB-0546"},{"norad_id":"56049","company":"ONEWEB","tle_line2":"2 56049  87.9348 341.9073 0002028  79.5217 280.6146 13.21826246 93313","launch_date":"2023-03-26","type":"LEO","tle_line1":"1 56049U 23043D   25041.82838465  .00000220  00000+0  50081-3 0  9992","satellite_name":"ONEWEB-0547"},{"norad_id":"56050","company":"ONEWEB","tle_line2":"2 56050  87.9130 326.7167 0001309  87.1267 273.0014 13.16592652 94305","launch_date":"2023-03-26","type":"LEO","tle_line1":"1 56050U 23043E   25041.80457513  .00000038  00000+0  66560-4 0  9990","satellite_name":"ONEWEB-0548"}]